{
  "type": "FeatureCollection",
  "features": [
    {
      "type": "Feature",
      "properties": {
        "norad_id": 35583,
        "name": "COSMOS 2251 DEB",
        "group": "cosmos-2251-debris",
        "lat": -44.488023603196716,
        "lon": 35.57884832745945,
        "alt_km": 773.604054236599,
        "timestamp": "2025-12-20T16:47:36.680996+00:00",
        "meta_object_name": "COSMOS 2251 DEB",
        "meta_object_id": "1993-036AMA",
        "meta_epoch": "2025-12-20T06:48:28.605888",
        "meta_mean_motion": 13.55347821,
        "meta_eccentricity": 0.0385172,
        "meta_inclination": 73.9159,
        "meta_ra_of_asc_node": 199.7899,
        "meta_arg_of_pericenter": 222.7536,
        "meta_mean_anomaly": 134.3018,
        "meta_ephemeris_type": 0,
        "meta_classification_type": "U",
        "meta_norad_cat_id": 35583,
        "meta_element_set_no": 999,
        "meta_rev_at_epoch": 82514,
        "meta_bstar": 0.00063035,
        "meta_mean_motion_dot": 6.79e-06,
        "meta_mean_motion_ddot": 0,
        "tle_line1": "1 35583U 93036AMA 25354.28366442  .00000679  00000+0  63035-3 0  9990",
        "tle_line2": "2 35583  73.9159 199.7899 0385172 222.7536 134.3018 13.55347821825144"
      },
      "geometry": {
        "type": "Point",
        "coordinates": [
          35.57884832745945,
          -44.488023603196716
        ]
      }
    },
    {
      "type": "Feature",
      "properties": {
        "norad_id": 35585,
        "name": "COSMOS 2251 DEB",
        "group": "cosmos-2251-debris",
        "lat": 31.652317497995398,
        "lon": -14.670445558966025,
        "alt_km": 1168.8846601549812,
        "timestamp": "2025-12-20T16:47:36.681006+00:00",
        "meta_object_name": "COSMOS 2251 DEB",
        "meta_object_id": "1993-036AMC",
        "meta_epoch": "2025-12-18T09:07:12.258336",
        "meta_mean_motion": 13.75264082,
        "meta_eccentricity": 0.03105119,
        "meta_inclination": 73.9723,
        "meta_ra_of_asc_node": 338.9941,
        "meta_arg_of_pericenter": 250.1355,
        "meta_mean_anomaly": 180.5614,
        "meta_ephemeris_type": 0,
        "meta_classification_type": "U",
        "meta_norad_cat_id": 35585,
        "meta_element_set_no": 999,
        "meta_rev_at_epoch": 64141,
        "meta_bstar": 0.00084480695,
        "meta_mean_motion_dot": 1.126e-05,
        "meta_mean_motion_ddot": 0,
        "tle_line1": "1 35585U 93036AMC 25352.38000299  .00001126  00000+0  84481-3 0  9992",
        "tle_line2": "2 35585  73.9723 338.9941 0310511 250.1355 180.5614 13.75264082641417"
      },
      "geometry": {
        "type": "Point",
        "coordinates": [
          -14.670445558966025,
          31.652317497995398
        ]
      }
    },
    {
      "type": "Feature",
      "properties": {
        "norad_id": 35586,
        "name": "COSMOS 2251 DEB",
        "group": "cosmos-2251-debris",
        "lat": -70.96718241384764,
        "lon": -126.43429631960007,
        "alt_km": 1198.9470635339385,
        "timestamp": "2025-12-20T16:47:36.681016+00:00",
        "meta_object_name": "COSMOS 2251 DEB",
        "meta_object_id": "1993-036AMD",
        "meta_epoch": "2025-12-18T14:35:36.885984",
        "meta_mean_motion": 13.5208875,
        "meta_eccentricity": 0.04044314,
        "meta_inclination": 74.0204,
        "meta_ra_of_asc_node": 293.076,
        "meta_arg_of_pericenter": 167.1463,
        "meta_mean_anomaly": 11.7227,
        "meta_ephemeris_type": 0,
        "meta_classification_type": "U",
        "meta_norad_cat_id": 35586,
        "meta_element_set_no": 999,
        "meta_rev_at_epoch": 60461,
        "meta_bstar": 0.00023975249,
        "meta_mean_motion_dot": 2.44e-06,
        "meta_mean_motion_ddot": 0,
        "tle_line1": "1 35586U 93036AMD 25352.60806581  .00000244  00000+0  23975-3 0  9997",
        "tle_line2": "2 35586  74.0204 293.0760 0404431 167.1463  11.7227 13.52088750604613"
      },
      "geometry": {
        "type": "Point",
        "coordinates": [
          -126.43429631960007,
          -70.96718241384764
        ]
      }
    },
    {
      "type": "Feature",
      "properties": {
        "norad_id": 35587,
        "name": "COSMOS 2251 DEB",
        "group": "cosmos-2251-debris",
        "lat": -32.93080096936423,
        "lon": 32.21594816199769,
        "alt_km": 669.8047748726076,
        "timestamp": "2025-12-20T16:47:36.681026+00:00",
        "meta_object_name": "COSMOS 2251 DEB",
        "meta_object_id": "1993-036AME",
        "meta_epoch": "2025-12-19T21:22:17.268960",
        "meta_mean_motion": 14.71544302,
        "meta_eccentricity": 0.0102392,
        "meta_inclination": 74.0049,
        "meta_ra_of_asc_node": 44.4984,
        "meta_arg_of_pericenter": 230.5816,
        "meta_mean_anomaly": 128.6259,
        "meta_ephemeris_type": 0,
        "meta_classification_type": "U",
        "meta_norad_cat_id": 35587,
        "meta_element_set_no": 999,
        "meta_rev_at_epoch": 66451,
        "meta_bstar": 0.00018067,
        "meta_mean_motion_dot": 1.181e-05,
        "meta_mean_motion_ddot": 0,
        "tle_line1": "1 35587U 93036AME 25353.89047765  .00001181  00000+0  18067-3 0  9998",
        "tle_line2": "2 35587  74.0049  44.4984 0102392 230.5816 128.6259 14.71544302664515"
      },
      "geometry": {
        "type": "Point",
        "coordinates": [
          32.21594816199769,
          -32.93080096936423
        ]
      }
    },
    {
      "type": "Feature",
      "properties": {
        "norad_id": 35593,
        "name": "COSMOS 2251 DEB",
        "group": "cosmos-2251-debris",
        "lat": -38.628749191862674,
        "lon": 107.30040284845542,
        "alt_km": 772.3932462797684,
        "timestamp": "2025-12-20T16:47:36.681036+00:00",
        "meta_object_name": "COSMOS 2251 DEB",
        "meta_object_id": "1993-036AML",
        "meta_epoch": "2025-12-20T03:57:49.308192",
        "meta_mean_motion": 14.2562311,
        "meta_eccentricity": 0.01050867,
        "meta_inclination": 74.0862,
        "meta_ra_of_asc_node": 275.0836,
        "meta_arg_of_pericenter": 279.9354,
        "meta_mean_anomaly": 78.9945,
        "meta_ephemeris_type": 0,
        "meta_classification_type": "U",
        "meta_norad_cat_id": 35593,
        "meta_element_set_no": 999,
        "meta_rev_at_epoch": 85171,
        "meta_bstar": 0.0005338344,
        "meta_mean_motion_dot": 1.314e-05,
        "meta_mean_motion_ddot": 0,
        "tle_line1": "1 35593U 93036AML 25354.16515403  .00001314  00000+0  53383-3 0  9993",
        "tle_line2": "2 35593  74.0862 275.0836 0105086 279.9354  78.9945 14.25623110851713"
      },
      "geometry": {
        "type": "Point",
        "coordinates": [
          107.30040284845542,
          -38.628749191862674
        ]
      }
    },
    {
      "type": "Feature",
      "properties": {
        "norad_id": 35594,
        "name": "COSMOS 2251 DEB",
        "group": "cosmos-2251-debris",
        "lat": 26.550559731852996,
        "lon": -97.9073315936359,
        "alt_km": 588.7812205500613,
        "timestamp": "2025-12-20T16:47:36.681046+00:00",
        "meta_object_name": "COSMOS 2251 DEB",
        "meta_object_id": "1993-036AMM",
        "meta_epoch": "2025-12-17T17:07:08.312160",
        "meta_mean_motion": 14.88085261,
        "meta_eccentricity": 0.00295539,
        "meta_inclination": 73.8085,
        "meta_ra_of_asc_node": 96.479,
        "meta_arg_of_pericenter": 207.6965,
        "meta_mean_anomaly": 152.2642,
        "meta_ephemeris_type": 0,
        "meta_classification_type": "U",
        "meta_norad_cat_id": 35594,
        "meta_element_set_no": 999,
        "meta_rev_at_epoch": 88259,
        "meta_bstar": 0.0013790172,
        "meta_mean_motion_dot": 0.00012773,
        "meta_mean_motion_ddot": 0,
        "tle_line1": "1 35594U 93036AMM 25351.71329065  .00012773  00000+0  13790-2 0  9997",
        "tle_line2": "2 35594  73.8085  96.4790 0029553 207.6965 152.2642 14.88085261882590"
      },
      "geometry": {
        "type": "Point",
        "coordinates": [
          -97.9073315936359,
          26.550559731852996
        ]
      }
    },
    {
      "type": "Feature",
      "properties": {
        "norad_id": 35602,
        "name": "COSMOS 2251 DEB",
        "group": "cosmos-2251-debris",
        "lat": 7.637414543087669,
        "lon": -17.117053997567048,
        "alt_km": 428.0935761602368,
        "timestamp": "2025-12-20T16:47:36.681057+00:00",
        "meta_object_name": "COSMOS 2251 DEB",
        "meta_object_id": "1993-036AMV",
        "meta_epoch": "2025-12-19T12:02:08.754144",
        "meta_mean_motion": 15.3532305,
        "meta_eccentricity": 0.0089059,
        "meta_inclination": 73.9924,
        "meta_ra_of_asc_node": 167.6664,
        "meta_arg_of_pericenter": 231.9555,
        "meta_mean_anomaly": 160.7824,
        "meta_ephemeris_type": 0,
        "meta_classification_type": "U",
        "meta_norad_cat_id": 35602,
        "meta_element_set_no": 999,
        "meta_rev_at_epoch": 90195,
        "meta_bstar": 0.00042337,
        "meta_mean_motion_dot": 0.00016543,
        "meta_mean_motion_ddot": 0,
        "tle_line1": "1 35602U 93036AMV 25353.50149021  .00016543  00000+0  42337-3 0  9997",
        "tle_line2": "2 35602  73.9924 167.6664 0089059 231.9555 160.7824 15.35323050901958"
      },
      "geometry": {
        "type": "Point",
        "coordinates": [
          -17.117053997567048,
          7.637414543087669
        ]
      }
    }
  ]
}